FID,Shape *,type,idschool,district,name,dcode,address,x,y
1,Point,3,3110010101,พระนคร,โรงเรียนวัดมกุฎกษัตริยาราม,1001,330/2 ถ.กรุงเกษม แขวงบางขุนพรหม เขตพระนคร,662920.21,1522284.326
2,Point,1,3110010102,พระนคร,โรงเรียนวัดตรีทศเทพ,1001,165 ถ.ประชาธิปัตย์ แขวงบ้านพานถม เขตพระนคร,662522.939,1521855.415
3,Point,1,3110010103,พระนคร,โรงเรียนวัดราชนัดดา,1001,2 ถ.สนามไชย แขวงบวรนิเวศ เขตพระนคร,662586.859,1521188.303
4,Point,1,3110010104,พระนคร,โรงเรียนวัดมหรรณพ์,1001,261/1 ถ.ตะนาว แขวงเสาชิงช้า เขตพระนคร,662059.488,1521039.509
5,Point,1,3110010105,พระนคร,โรงเรียนวัดสุทัศน์,1001,18/1 ถ.ตีทอง แขวงวัดราชบพิธ เขตพระนคร,662319.752,1520467.159
6,Point,1,3110010106,พระนคร,โรงเรียนวัดมหาธาตุ,1001,3 ถ.พระจันทร์ แขวงพระราชวัง เขตพระนคร,661209.113,1521202.633
7,Point,1,3110010107,พระนคร,โรงเรียนวัดพระเชตุพน,1001,2 ถ.สนามไชย แขวงพระบรมมหาราชวัง เขตพระนคร,661376.315,1520165.163
8,Point,2,3110010108,พระนคร,โรงเรียนราชบพิธ,1001,29 ถ.ราชบพิธ แขวงราชบพิธ เขตพระนคร,662135.952,1520555.587
9,Point,1,3110010109,พระนคร,โรงเรียนวัดราชบูรณะ,1001,133/18 ถ.ตรีเพชร แขวงวังบูรพาภิรมย์ เขตพระนคร,662128.652,1519798.711
10,Point,1,3110010110,พระนคร,โรงเรียนวัดอินทรวิหาร,1001,1 ถ.วิสุทกษัตริย์ แขวงบางขุนพรหม เขตพระนคร,662411.388,1522448.02
11,Point,1,3110010111,พระนคร,โรงเรียนวัดใหม่อมตรส,1001,132 ถ.สามเสน แขวงพานถม เขตพระนคร,662324.254,1522243.929
12,Point,1,3110010201,ป้อมปราบศัตรูพ่าย,โรงเรียนวัดพระพิเรนทร์,1008,326 คลองถม แขวงบ้านบาตร เขตป้อมปราบศัตรูพ่าย,662785.535,1520318.504
13,Point,2,3110010202,ป้อมปราบศัตรูพ่าย,โรงเรียนวัดสิตาราม,1008,21/2 ถ.ดำรงรักษ์ แขวงมหานาค เขตป้อมปราบศัตรูพ่าย,663255.644,1521165.231
14,Point,1,3110010203,ป้อมปราบศัตรูพ่าย,โรงเรียนวัดคณิกาผล,1008,405/1 ถ.มังกร แขวงป้อมปราบศัตรูพ่าย เขตป้อมปราบศัตรูพ่าย,663261.253,1519995.947
15,Point,1,3110010204,ป้อมปราบศัตรูพ่าย,โรงเรียนวัดดิสานุการาม,1008,ถ.วรจักร แขวงเทพศิรินทร์ เขตป้อมปราบศัตรูพ่าย,663052.795,1520475.987
16,Point,1,3110010401,สัมพันธวงศ์,โรงเรียนวัดจักรวรรดิ์,1013,225 ถ.จักรวรรดิ แขวงจักรวรรดิ แขวงสัมพันธวงศ์ เขตสัมพันธวงศ์,662578.718,1519773.558
17,Point,1,3110010402,สัมพันธวงศ์,โรงเรียนวัดปทุมคงคา,1013,1640 ถ.ทรงวาด แขวงสัมพันธวงศ์ เขตสัมพันธวงศ์,663360.956,1519152.759
18,Point,1,3110010403,สัมพันธวงศ์,โรงเรียนวัดสัมพันธวงค์,1013,579/14 ถ.ทรงวาด แขวงสัมพันธวงศ์ เขตสัมพันธวงศ์,663214.011,1519301.692
19,Point,2,3110010601,ดุสิต,โรงเรียนวัดประชาระบือธรรม,1002,158 ถ.พระราม 5 แขวงถนนนครไชยศรี เขตดุสิต,664866.181,1524991.588
20,Point,1,3110010602,ดุสิต,โรงเรียนวัดสวัสดิ์วารีสีมาราม,1002,996 ถ.นครไชยศรี เขตดุสิต,663848.519,1523997.88
21,Point,1,3110010603,ดุสิต,โรงเรียนวัดราชผาติการาม,1002,147 ถ.ราชวิถี แขวงวชิรพยาบาล เขตดุสิต,662651.053,1523967.166
22,Point,1,3110010604,ดุสิต,โรงเรียนวัดเทวราชกุญชร,1002,90/1 ถ.ศรีอยุธยา แขวงวชิรพยาบาล เขตดุสิต,662339.572,1523129.003
23,Point,1,3110010605,ดุสิต,โรงเรียนวัดสัมณานัมบริหาร,1002,416/1 ถ.พิษณุโลก แขวงสี่แยกมหานาค เขตดุสิต,663933.344,1521679.368
24,Point,3,3110010606,ดุสิต,โรงเรียนเบญจมบพิตร,1002,69 ถ.นครปฐม เขตดุสิต,663540.886,1522395.871
25,Point,2,3110010607,ดุสิต,โรงเรียนสุโขทัย,1002,361 ถ.สุโขทัย แขวงสวนจิตรลดา เขตดุสิต,664556.389,1523504.084
26,Point,3,3110010608,ดุสิต,โรงเรียนวัดจันทร์สโมสร,1002,977/39 ถ.สามเสน แขวงนครไชยศรี เขตดุสิต,663801.638,1525129.374
27,Point,2,3110010609,ดุสิต,โรงเรียนวัดธรรมาภิรตาราม,1002,170/2 ถ.เตชะวณิช แขวงบางซื่อ เขตดุสิต,665716.515,1526000.671
28,Point,3,3110010801,พญาไท,โรงเรียนวัดไผ่ตัน,1014,64/1 หมู่ 4 ถ.พหลโยธิน แขวงสามเสนใน เขตพญาไท,667365.373,1525736.453
29,Point,3,3110013602,ห้วยขวาง,โรงเรียนพระราม ๙ กาญจนาภิเษก,1017,542 ซ.พระราม9/19 แขวงบางกะปิ เขตห้วยขวาง,672234.428,1521702.383
30,Point,1,3110013603,ห้วยขวาง,โรงเรียนวัดใหม่ช่องลม,1017,2042 ถ.เพชรบุรีตัดใหม่ แขวงบางกะปิ เขตห้วยขวาง,669933.205,1520537.385
31,Point,3,3110023601,ห้วยขวาง,โรงเรียนประชาราษฎร์บำเพ็ญ,1017,500 ถ.ประชาราษฎร์บำเพ็ญ แขวงสามเสนนอก เขตห้วยขวาง,671202.588,1523491.994
32,Point,2,3110010902,ราชเทวี,โรงเรียนวัดดิสหงสาราม,1037,9 ถ.เพชรบุรีตัดใหม่ แขวงมักกะสัน เขตราชเทวี,667777.308,1520476.482
33,Point,2,3110010903,ราชเทวี,โรงเรียนวัดพระยายัง,1037,49 ถ.พระราม 6 แขวงถนนเพชรบุรี เขตราชเทวี,664549.554,1520855.39
34,Point,2,3110010904,ราชเทวี,โรงเรียนวัดทัศนารุณสุนทริการาม,1037,149 ถ.ราชปรารภ แขวงมักกะสัน เขตราชเทวี,666874.519,1521832.694
35,Point,3,3110020901,ราชเทวี,โรงเรียนกิ่งเพชร,1037,323 ซ.กิ่งเพชร แขวงเพชรบุรี เขตราชเทวี,665019.937,1520769.95
36,Point,3,3110013803,ดินแดง,โรงเรียนวิชากร,1026,3981 ถ.ประชาสงเคราะห์ แขวงดินแดง เขตดินแดง,668135.046,1522608.489
37,Point,3,3110023801,ดินแดง,โรงเรียนสามเสนนอก,1026,ถ.ประชาสงเคราะห์ แขวงห้วยขวาง เขตดินแดง,669676.302,1523712.434
38,Point,3,3110023802,ดินแดง,โรงเรียนวิชูทิศ,1026,4095/1 ถ.ประชาสงเคราะห์ แขวงดินแดง เขตดินแดง,668256.571,1522621.824
39,Point,1,3110014301,วังทองหลาง,โรงเรียนสุเหร่าลาดพร้าว,1045,568 หมู่ 13 ซ.รามคำแหง 39 เขตวังทองหลาง,672340.133,1523034.571
40,Point,2,3110014302,วังทองหลาง,โรงเรียนสุเหร่าดอนสะแก,1045,87 หมู่ 9 ซ.ลาดพร้าว 96 เขตวังทองหลาง,674330.869,1524064.813
41,Point,2,3110014303,วังทองหลาง,โรงเรียนวัดสามัคคีธรรม,1045,51/1 หมู่ 12 ถ.ลาดพร้าว 64 เขตวังทองหลาง,672959.883,1524434.414
42,Point,1,3110010501,บางรัก,โรงเรียนวัดหัวลำโพง,1004,728/1 ถ.พระรามสี่ แขวงสี่พระยา เขตบางรัก,665282.935,1518600.798
43,Point,1,3110010502,บางรัก,โรงเรียนวัดม่วงแค,1004,30 ถ.เจริญกรุง แขวงบางรัก เขตบางรัก,663830.207,1517964.208
44,Point,1,3110010503,บางรัก,โรงเรียนวัดมหาพฤฒาราม,1004,44 ถ.สี่พระยา แขวงมหาพฤฒาราม เขตบางรัก,664036.7,1518624.082
45,Point,1,3110010504,บางรัก,โรงเรียนวัดสวนพลู,1004,58/1 ถ.เจริญกรุง แขวงบางรัก เขตบางรัก,663908.016,1517494.692
46,Point,1,3110010505,บางรัก,โรงเรียนวัดแก้วแจ่มฟ้า,1004,562 ถ.สี่พระยา แขวงมหาพฤฒาราม เขตบางรัก,664297.448,1518580.151
47,Point,1,3110010301,ปทุมวัน,โรงเรียนวัดบรมนิวาส,1007,2/1 ถ.พระราม 1 แขวงรองเมือง เขตปทุมวัน,664359.903,1520788.139
48,Point,2,3110010305,ปทุมวัน,โรงเรียนวัดสระบัว,1007,6 ถ.พระราม 1 แขวงรองเมือง เขตปทุมวัน,664175.378,1520335.001
49,Point,3,3110010306,ปทุมวัน,โรงเรียนสวนลุมพินี,1007,196 ถ.วิทยุ แขวงลุมพินี เขตปทุมวัน,667080.659,1518739.719
50,Point,1,3110010308,ปทุมวัน,โรงเรียนวัดดวงแข,1007,86 ถ.จารุเมือง แขวงรองเมือง เขตปทุมวัน,664288.151,1519717.019
51,Point,3,3110010309,ปทุมวัน,โรงเรียนปลูกจิต,1007,99 ซ.ปลูกจิตต์ แขวงลุมพินี เขตปทุมวัน,667594.87,1518237.731
52,Point,1,3110020302,ปทุมวัน,โรงเรียนวัดชัยมงคล,1007,437 ถ.พระราม 1 แขวงรองเมือง เขตปทุมวัน,664708.014,1520380.574
53,Point,2,3110020303,ปทุมวัน,โรงเรียนวัดปทุมวนาราม ในพระบรมราชูปถัมภ์สมเด็จพระเทพรัตนราชสุดาฯ สยามบรมราชกุมารี,1007,969/1 ถ.พระราม 1 แขวงปทุมวัน เขตปทุมวัน,666086.055,1520231.202
54,Point,3,3110011001,ยานนาวา,โรงเรียนวัดดอกไม้,1012,583 ถ.พระราม 3 แขวงบางโพงพาง เขตยานนาวา,665038.142,1513201.831
55,Point,3,3110011002,ยานนาวา,โรงเรียนวัดช่องลม,1012,29 ถ.พระราม 3 แขวงช่องนนทรี เขตยานนาวา,667177.595,1515570.961
56,Point,3,3110011003,ยานนาวา,โรงเรียนวัดช่องนนทรี,1012,461 ถ.ช่องนนทรี แขวงช่องนนทรี เขตยานนาวา,667043.505,1514382.323
57,Point,2,3110011004,ยานนาวา,โรงเรียนวัดปริวาศ,1012,762/1 ถ.พระราม 3 แขวงบางโพงพาง เขตยานนาวา,665834.464,1512096.416
58,Point,1,3110011005,ยานนาวา,โรงเรียนวัดคลองใหม่,1012,18 ถ.พระราม 3 แขวงบางโพงพาง เขตยานนาวา,666970.037,1512645.629
59,Point,1,3110011006,ยานนาวา,โรงเรียนวัดคลองภูมิ,1012,22/1 ถ.พระราม 3 แขวงช่องนนทรี เขตยานนาวา,667490.556,1512957.342
60,Point,2,3110011301,พระโขนง,โรงเรียนบางจาก (นาคเผื่อนอุปถัมป์),1009,263 ซ.สุขุมวิท 58 แขวงบางจาก เขตพระโขนง,672548.562,1514723.926
61,Point,3,3110011302,พระโขนง,โรงเรียนวัดราษฎร์ศรัทธาธรรม,1009,774 ซ.พึ่งมี ถ.สุขุมวิท 93 แขวงบางจาก เขตพระโขนง,675436.64,1515414.522
62,Point,3,3110011304,พระโขนง,โรงเรียนพูนสิน,1009,ซ.สุขุมวิท 66/1 (ซ.พูนสิน) แขวงบางจาก เขตพระโขนง,673446.811,1513279.15
63,Point,2,3110021303,พระโขนง,โรงเรียนวัดธรรมมงคล (หลวงพ่อวิริยังค์อุปถัมป์),1009,132 ถ.สุขุมวิท 101 แขวงบางจาก เขตพระโขนง,674692.068,1513895.738
64,Point,2,3110011101,สาทร,โรงเรียนวัดดอน,1028,25/1 ถ.เจริญกรุง แขวงยานนาวา เขตสาทร,664033.363,1516588.25
65,Point,2,3110011102,สาทร,โรงเรียนวัดยานนาวา,1028,1648 ถ.เจริญกรุง แขวงยานนาวา เขตสาทร,663586.149,1517019.122
66,Point,3,3110011201,บางคอแหลม,โรงเรียนวัดไผ่เงินโชตนาราม,1031,880 ถ.จันทร์ แขวงบางโคล่ เขตบางคอแหลม,664748.202,1515207.836
67,Point,3,3110011202,บางคอแหลม,โรงเรียนวัดราชสิงขร,1031,29 ถ.เจริญกรุง แขวงวัดพระยาไกร เขตบางคอแหลม,662657.472,1515711.099
68,Point,2,3110011203,บางคอแหลม,โรงเรียนวัดลาดบัวขาว,1031,504 ถ.เจริญกรุง แขวงบางคอแหลม เขตบางคอแหลม,661903.476,1515136.616
69,Point,2,3110011204,บางคอแหลม,โรงเรียนวัดไทร,1031,633 ซ.เจริญกรุง 107 แขวงบางโคล่ เขตบางคอแหลม,664183.85,1513983.234
70,Point,1,3110011205,บางคอแหลม,โรงเรียนวัดจันทร์นอก,1031,101/1 ถ.พระราม 3 แขวงบางโคล่นอก เขตบางคอแหลม,662385.775,1513959.812
71,Point,1,3110011206,บางคอแหลม,โรงเรียนวัดบางโคล่นอก,1031,448/25 แขวงบางโคล่นอก เขตบางคอแหลม,663520.982,1513653.785
72,Point,2,3110011207,บางคอแหลม,โรงเรียนวัดจันทร์ใน,1031,449 ซ.ประดู่ 1 แขวงบางโคล่นอก เขตบางคอแหลม,662633.813,1514533.917
73,Point,2,3110011401,คลองเตย,โรงเรียนวัดสะพาน,1033,1730 แขวงพระโขนง เขตคลองเตย,671777.823,1515566.872
74,Point,1,3110011402,คลองเตย,โรงเรียนวัดคลองเตย,1033,386 ถ.สุนทรโกษา แขวงคลองเตย เขตคลองเตย,668774.444,1516211.858
75,Point,3,3110011403,คลองเตย,โรงเรียนศูนย์รวมน้ำใจ,1033,133/1 ถ.อาจณรงค์ แขวงคลองเตย เขตคลองเตย,669733.506,1516540.963
76,Point,3,3110021404,คลองเตย,โรงเรียนชุมชนหมู่บ้านพัฒนา,1033,160/507 ล็อค 6 แขวงคลองเตย เขตคลองเตย,670274.974,1516323.78
77,Point,2,3110013701,สวนหลวง,โรงเรียนวัดใต้ (ราษฎรนิรมิต),1034,435 ถ.สุขุมวิท แขวงพระโขนง เขตสวนหลวง,673433.436,1516573.054
78,Point,3,3110013702,สวนหลวง,โรงเรียนมัธยมนาคนาวาอุปถัมภ์,1034,96/1 ถ.พัฒนาการ แขวงสวนหลวง เขตสวนหลวง,674413.443,1518617.14
79,Point,3,3110013704,สวนหลวง,โรงเรียนนาคนาวาอุปถัมภ์,1034,96 ถ.พัฒนาการ แขวงสวนหลวง เขตสวนหลวง,674430.693,1518530.977
80,Point,2,3110013705,สวนหลวง,โรงเรียนสุเหร่าใหม่,1034,27 หมู่ 2 ถ.ศรีนครินทร์ แขวงสวนหลวง เขตสวนหลวง,677261.142,1516955.795
81,Point,1,3110013706,สวนหลวง,โรงเรียนหัวหมาก,1034,55 ถ.ศรีนครินทร์ แขวงสวนหลวง เขตสวนหลวง,677705.708,1519317.065
82,Point,2,3110013707,สวนหลวง,โรงเรียนคลองกลันตัน,1034,646 ซ.อ่อนนุช 25 แขวงสวนหลวง เขตสวนหลวง,677378.925,1518820.916
83,Point,1,3110023703,สวนหลวง,โรงเรียนวัดทองใน,1034,412 ซ.สุขุมวิท 77 เขตสวนหลวง,675450.876,1516467.921
84,Point,3,3110023708,สวนหลวง,โรงเรียนมัธยมนาคนาวาอุปถัมภ์,1034,96/1 ถ.พัฒนาการ แขวงสวนหลวง เขตสวนหลวง,674413.443,1518617.14
85,Point,3,3110014501,วัฒนา,โรงเรียนวัดธาตุทอง,1039,1325 ถ.สุขุมวิท แขวงพระโขนง เขตวัฒนา,671569.162,1517285.665
86,Point,2,3110014504,วัฒนา,โรงเรียนสุเหร่าบางมะเขือ,1039,ถ.สุขุมวิท 71 แขวงพระโขนง เขตวัฒนา,672683.563,1516822.394
87,Point,2,3110014505,วัฒนา,โรงเรียนสุเหร่าสามอิน,1039,780 ถ.สุขุมวิท 71 แขวงคลองตัน เขตวัฒนา,672595.702,1518205.928
88,Point,2,3110014506,วัฒนา,โรงเรียนวัดภาษี,1039,ถ.สุขุมวิท 63 แขวงคลองตันเหนือ เขตวัฒนา,671777.65,1519726.982
89,Point,2,3110014507,วัฒนา,โรงเรียนแจ่มจันทร์,1039,4/44 ถ.เอกชัย แขวงคลองตัน เขตวัฒนา,671670.327,1519445.201
90,Point,2,3110014508,วัฒนา,โรงเรียนสวัสดีวิทยา,1039,35/10 ถ.สุขุมวิท 31 แขวงคลองตัน เขตวัฒนา,669351.31,1519499.809
91,Point,3,3110024502,วัฒนา,โรงเรียนวิจิตรวิทยา,1039,170 ซ.นวลน้อย แขวงคลองตัน เขตวัฒนา,672319.015,1519563.261
92,Point,2,3110024503,วัฒนา,โรงเรียนสุเหร่าบ้านดอน,1039,84 ถ.สุขุมวิท 49-14 แขวงคลองตันเหนือ เขตวัฒนา,670858.244,1519880.305
93,Point,3,3110014701,บางนา,โรงเรียนวัดบางนาใน,1047,200 ถ.สุขุมวิท แขวงบางนา เขตบางนา,673501.19,1511933.606
94,Point,2,3110014702,บางนา,โรงเรียนวัดบางนานอก,1047,ถ.สรรพาวุธ แขวงบางนา เขตบางนา,671741.875,1512483.798
95,Point,3,3110014703,บางนา,โรงเรียนผ่องพลอยอนุสรณ์,1047,3/1 หมู่ 7 ซ.ศรีพงษ์ แขวงบางนา เขตบางนา,676297.444,1510874.799
96,Point,3,3110014705,บางนา,โรงเรียนรุ่งเรืองอุปถัมภ์,1047,122 ถ.สุขุมวิท แขวงบางนา เขตบางนา,674295.922,1512588.085
97,Point,2,3110014706,บางนา,โรงเรียนอำนวยกนกศิริอนุสรณ์,1047,1007/7 หมู่ 12 ซ.อุดมสุข 26 แขวงบางนา เขตบางนา,675117.442,1512398.05
98,Point,3,3110024704,บางนา,โรงเรียนศรีเอี่ยมอนุสรณ์,1047,หมู่ 11 ถ.บางนา-ตราด แขวงบางนา เขตบางนา,677787.593,1511584.106
99,Point,3,3110024707,บางนา,โรงเรียนเพี้ยนพินอนุสรณ์,1047,27/799 แขวงบางนา เขตบางนา,672826.403,1511188.006
100,Point,3,3110011602,บางเขน,โรงเรียนบ้านคลองบัว,1005,112 หมู่ 6 ถ.รามอินทรา แขวงท่าแร้ง เขตบางเขน,677306.947,1533331.353
101,Point,2,3110011603,บางเขน,โรงเรียนบ้านบัวมล,1005,59/1 หมู่ ถ.สุขาภิบาล 5 แขวงท่าแร้ง เขตบางเขน,678918.762,1535168.737
102,Point,3,3110011604,บางเขน,โรงเรียนประชาภิบาล,1005,11/15 หมู่ 3 แขวงอนุสาวรีย์ เขตบางเขน,672572.988,1534261.748
103,Point,2,3110011605,บางเขน,โรงเรียนวัดไตรรัตนาราม,1005,3/1 ซ.วัดไทรรัตนาราม แขวงอนุสาวรีย์ เขตบางเขน,674893.611,1531724.421
104,Point,3,3110021601,บางเขน,โรงเรียนไทยนิยมสงเคราะห์,1005,79 หมู่ 3 ถ.พหลโยธิน แขวงอนุสาวรีย์ เขตบางเขน,672706.436,1534740.503
105,Point,3,3110011701,ดอนเมือง,โรงเรียนวัดดอนเมือง (ทหารอากาศอุทิศ),1036,1/4 หมู่ 10 แขวงสีกัน เขตดอนเมือง,672981.883,1539625.335
106,Point,3,3110011702,ดอนเมือง,โรงเรียนพหลโยธิน,1036,9 ซ.วิภาวดีรังสิต 45 แขวงสีกัน เขตดอนเมือง,674512.182,1542736.295
107,Point,2,3110011705,ดอนเมือง,โรงเรียนเปรมประชา,1036,209 ซ.เปรมประชา แขวงตลาดบางเขน เขตดอนเมือง,673497.916,1542528.706
108,Point,3,3110021703,ดอนเมือง,โรงเรียนวัดเวฬุวนาราม,1036,69 หมู่ 5 แขวงสีกัน เขตดอนเมือง,669203.502,1538837.184
109,Point,3,3110021704,ดอนเมือง,โรงเรียนประชาอุทิศ (จันทาบอนุสรณ์),1036,16/1 หมู่ 4 ถ.สรงประภา แขวงสีกัน เขตดอนเมือง,671126.491,1539777.739
110,Point,3,3110021706,ดอนเมือง,โรงเรียนบำรุงรวิวรรณวิทยา (ทุ่งสีกัน),1036,501 หมู่ 3 ถ.เตชะตุงคะ แขวงสีกัน เขตดอนเมือง,671001.047,1541474.626
111,Point,3,3110011801,จตุจักร,โรงเรียนวัดเสมียนนารี,1030,32 หมู่ 2 ถ.วิภาวดีรังสิต แขวงลาดยาว เขตจตุจักร,668197.553,1530624.61
112,Point,1,3110011802,จตุจักร,โรงเรียนวัดเทวสุนทร,1030,1 หมู่ 19 ถ.วิภาวดีรังสิต แขวงลาดยาว เขตจตุจักร,668811.532,1532118.514
113,Point,2,3110011803,จตุจักร,โรงเรียนบ้านลาดพร้าว,1030,หมู่ 13 ถ.ลาดพร้าว แขวงลาดยาว เขตจตุจักร,671632.462,1526680.238
114,Point,3,3110011804,จตุจักร,โรงเรียนรัตนโกสินทร์สมโภช(ราชทัณฑ์อุปถัมภ์),1030,111 ถ.งามวงศ์วาน แขวงลาดยาว เขตจตุจักร,667363.014,1531337.499
115,Point,3,3110011806,จตุจักร,โรงเรียนประชานิเวศน์,1030,ซ.10 ประชานิเวศน์ 1 แขวงลาดยาว เขตจตุจักร,667143.856,1530981.69
116,Point,3,3110021805,จตุจักร,โรงเรียนเสนานิคม,1030,1242 ถ.พหลโยธิน แขวงลาดยาว เขตจตุจักร,671671.994,1529687.801
117,Point,3,3110021807,จตุจักร,โรงเรียนมัธยมประชานิเวศน์,1030,ถ.เทศบาลรังรักษ์เหนือ แขวงลาดยาว เขตจตุจักร,667144.063,1530981.896
118,Point,3,3110012001,ลาดพร้าว,โรงเรียนลอยสายอนุสรณ์,1038,41 หมู่ 12 แขวงลาดพร้าว เขตลาดพร้าว,676430.508,1530668.213
119,Point,2,3110012003,ลาดพร้าว,โรงเรียนเทพวิทยา,1038,13/3 ซ.เสนานิคม 1 แขวงลาดพร้าว เขตลาดพร้าว,671949.062,1529741.398
120,Point,3,3110012004,ลาดพร้าว,โรงเรียนวัดลาดปลาเค้า,1038,63/1 หมู่ 2 แขวงจรเข้บัว เขตลาดพร้าว,673353.288,1531428.997
121,Point,3,3110012005,ลาดพร้าว,โรงเรียนเพชรถนอม (คลองเสือน้อย),1038,2/3 หมู่ 2 ถ.ลาดพร้าว เขตลาดพร้าว,674639.991,1528727.943
122,Point,3,3110012006,ลาดพร้าว,โรงเรียนคลองทรงกระเทียม,1038,1/4 หมู่ 8 แขวงลาดพร้าว เขตลาดพร้าว,674338.535,1526228.252
123,Point,3,3110022002,ลาดพร้าว,โรงเรียนวัดลาดพร้าว,1038,1 หมู่ 9 ถ.ลาดพร้าว 41 แขวงลาดพร้าว เขตลาดพร้าว,671896.41,1526525.25
124,Point,2,3110010701,บางซื่อ,โรงเรียนวัดประดู่ธรรมาธิปัตย์,1029,104 ถ.ประชาราษฎร์ แขวงบางซื่อ เขตบางซื่อ,664704.911,1526270.322
125,Point,3,3110010702,บางซื่อ,โรงเรียนวัดบางโพโอมาวาส,1029,101 ถ.ประชาราษฎร์สาย 1 แขวงบางซื่อ เขตบางซื่อ,664267.348,1527107.03
126,Point,3,3110010703,บางซื่อ,โรงเรียนวัดสร้อยทอง,1029,1333 ถ.ประชาราษฎร์สาย 1 แขวงบางซื่อ เขตบางซื่อ,664044.689,1527614.057
127,Point,2,3110010704,บางซื่อ,โรงเรียนวัดทองสุทธาราม,1029,26 ถ.กรุงเทพ-นนทบุรี แขวงบางซื่อ เขตบางซื่อ,665341.215,1529769.716
128,Point,3,3110010706,บางซื่อ,โรงเรียนวัดเลียบราษฎร์บำรุง,1029,1451 ซ.จงสุข แขวงบางซื่อ เขตบางซื่อ,664422.661,1529306.229
129,Point,1,3110010707,บางซื่อ,โรงเรียนวัดประชาศรัทธาธรรม,1029,7102 ถ.วงศ์สว่าง แขวงบางซื่อ เขตบางซื่อ,664199.363,1528174.119
130,Point,2,3110020705,บางซื่อ,โรงเรียนวัดมัชฌันติการาม,1029,203 ถ.วงศ์สว่าง แขวงบางซื่อ เขตบางซื่อ,663995.032,1528567.44
131,Point,3,3110013901,หลักสี่,โรงเรียนวัดหลักสี่ (ทองใบ ทิวารี),1041,487/1 ถ.วิภาวดีรังสิต แขวงตลาดบางเขน เขตหลักสี่,670995.585,1536043.043
132,Point,2,3110013904,หลักสี่,โรงเรียนเคหะทุ่งสองห้องวิทยา 2,1041,314 หมู่ 2 ถ.วิภาวดีรังสิต แขวงทุ่งสองห้อง เขตหลักสี่,670564.792,1537483.949
133,Point,3,3110013906,หลักสี่,โรงเรียนบางเขน (ไว้สาลีอนุสรณ์),1041,106 หมู่ 1 ถ.วิภาวดีรังสิต แขวงตลาดบางเขน เขตหลักสี่,669355.24,1532888.956
134,Point,3,3110023902,หลักสี่,โรงเรียนทุ่งสองห้อง,1041,207 หมู่ 4 ถ.แจ้งวัฒนะ แขวงทุ่งสองห้อง เขตหลักสี่,668612.974,1535596.569
135,Point,3,3110023903,หลักสี่,โรงเรียนเคหะทุ่งสองห้องวิทยา 1,1041,326 ถ.วิภาวดีรังสิต แขวงทุ่งสองห้อง เขตหลักสี่,671064.543,1537345.074
136,Point,3,3110023905,หลักสี่,โรงเรียนการเคหะท่าทราย,1041,304/233 หมู่ 6 แขวงทุ่งสองห้อง เขตหลักสี่,667850.869,1534271.928
137,Point,3,3110014002,สายไหม,โรงเรียนวัดเกาะสุวรรณาราม,1042,1 หมู่ 3 ถ.พหลโยธิน แขวงคลองถนน เขตสายไหม,676534.298,1538171.079
138,Point,2,3110014003,สายไหม,โรงเรียนออเงิน,1042,60 หมู่ 1 ถ.สุขาภิบาล 5 แขวงออเงิน เขตสายไหม,679897.194,1537731.048
139,Point,3,3110014005,สายไหม,โรงเรียนฤทธิยะวรรณาลัย,1042,171 ถ.ท่าดินแดง 3 แขวงคลองถนน เขตสายไหม,675576.359,1538781.954
140,Point,3,3110014006,สายไหม,โรงเรียนประชานุกูล,1042,116 แขวงสายไหม เขตสายไหม,676756.359,1539371.956
141,Point,2,3110014007,สายไหม,โรงเรียนพรพระร่วงประสิทธิ์,1042,110 หมู่ 6 แขวงออเงิน เขตสายไหม,679609.288,1535641.579
142,Point,3,3110014008,สายไหม,โรงเรียนวัดราษฎร์นิยมธรรม,1042,41 หมู่ 4 ถ.พหลโยธิน แขวงคลองถนน เขตสายไหม,675588.503,1535709.386
143,Point,3,3110014009,สายไหม,โรงเรียนซอยแอนเนกซ์ (กาญจนาภิเษก 2),1042,745 หมู่ 6 ถ.พหลโยธิน 58 เขตสายไหม,677044.614,1541193.748
144,Point,3,3110024001,สายไหม,โรงเรียนสายไหม,1042,19/3 หมู่ 3 ถ.ออเงิน แขวงสายไหม เขตสายไหม,679310.799,1540558.959
145,Point,3,3110024004,สายไหม,โรงเรียนวัดหนองใหญ่,1042,1 ถ.พระยาสุเรนทร์ แขวงสายไหม เขตสายไหม,682210.922,1539348.998
146,Point,2,3110011901,บางกะปิ,โรงเรียนไขศรีปราโมชอนุสรณ์,1006,136 ถ.ลาดพร้าว 134 แขวงคลองจั่น เขตบางกะปิ,676928.75,1522254.302
147,Point,2,3110011902,บางกะปิ,โรงเรียนสุเหร่าคลองจั่น,1006,596 ถ.รามคำแหง แขวงหัวหมาก เขตบางกะปิ,676732.711,1522277.341
148,Point,3,3110011903,บางกะปิ,โรงเรียนวัดเทพลีลา(สิงหประสิทธิวิทยา),1006,76 ซ.รามคำแหง 41 แขวงหัวหมาก เขตบางกะปิ,674661.081,1521581.585
149,Point,3,3110011904,บางกะปิ,โรงเรียนวัดศรีบุญเรือง,1006,130 หมู่ 2 ถ.ลาดพร้าว 130 แ ขวงคลองจั่น เขตบางกะปิ,678655.853,1522547.502
150,Point,2,3110011905,บางกะปิ,โรงเรียนลำสาลี (ราษฎร์บำรุง),1006,183-2 ถ.กรุงเทพกรีฑา แขวงหัวหมาก เขตบางกะปิ,678450.526,1520631.843
151,Point,2,3110011906,บางกะปิ,โรงเรียนคลองกะจะ,1006,163 คลองกะจะ แขวงหัวหมาก เขตบางกะปิ,676138.071,1520558.413
152,Point,1,3110011907,บางกะปิ,โรงเรียนสุเหร่าวังใหญ่,1006,แขวงหัวหมาก เขตบางกะปิ,681013.39,1520620.751
153,Point,2,3110011908,บางกะปิ,โรงเรียนสุเหร่าหัวหมากน้อย,1006,171 ถ.รามคำแหง แขวงหัวหมาก เขตบางกะปิ,679136.867,1521611.055
154,Point,3,3110011909,บางกะปิ,โรงเรียนบ้านบางกะปิ ,1006,93 ถ.นวมินทร์ แขวงคลองจั่น เขตบางกะปิ,678003.871,1523116.107
155,Point,3,3110011910,บางกะปิ,โรงเรียนวัดบึงทองหลาง,1006,1149 แขวงวังทองหลาง เขตบางกะปิ,675707.554,1525660.793
156,Point,3,3110021911,บางกะปิ,โรงเรียนมัธยมบ้านบางกะปิ,1006,ถ.นวมินทร์ แขวงคลองจั่น เขตบางกะปิ,678047.161,1523095.063
157,Point,2,3110013101,มีนบุรี,โรงเรียนคลองสองต้นนุ่น,1010,20 หมู่ 6 ถ.ร่มเกล้า แขวงมีนบุรี เขตมีนบุรี,687618.82,1525419.075
158,Point,2,3110013102,มีนบุรี,โรงเรียนคลองสาม,1010,37 หมู่ 15 ถ.ร่มเกล้า แขวงแสนแสบ เขตมีนบุรี,689290.115,1525436.973
159,Point,2,3110013103,มีนบุรี,โรงเรียนวังเล็กวิทยานุสรณ์ ,1010,13/1 หมู่ 17 ถ.สุวินทวงศ์ แขวงแสนแสบ เขตมีนบุรี,691366.048,1526676.564
160,Point,1,3110013105,มีนบุรี,โรงเรียนบึงขวาง (มหาดไทยอุปถัมภ์),1010,19/3 หมู่ 4 ถ.บึงขวาง แขวงแสนแสบ เขตมีนบุรี,689967.009,1526641.203
161,Point,3,3110013106,มีนบุรี,โรงเรียนมีนบุรี,1010,36 หมู่ 1 ถ.เสรีไทย แขวงมีนบุรี เขตมีนบุรี,687139.164,1527720.036
162,Point,3,3110013108,มีนบุรี,โรงเรียนวัดบำเพ็ญเหนือ,1010,26 หมู่ 14 ถ.เสรีไทย แขวงมีนบุรี เขตมีนบุรี,684668.378,1526265.823
163,Point,2,3110013109,มีนบุรี,โรงเรียนวัดแสนสุข,1010,47/1 หมู่ 2 ถ.สุวินทวงศ์ แขวงมีนบุรี เขตมีนบุรี,688269.961,1528446.094
164,Point,2,3110013110,มีนบุรี,โรงเรียนวัดใหม่ลำนกแขวก,1010,9/1 หมู่ 10 ถ.สุวินทวงศ์ แขวงแสนแสบ เขตมีนบุรี,695337.836,1527211.268
165,Point,2,3110013111,มีนบุรี,โรงเรียนศาลาคู้,1010,35/1  ถ.ราษฎร์อุทิศ แขวงแสนแสบ เขตมีนบุรี,694060.121,1531334.746
166,Point,2,3110013112,มีนบุรี,โรงเรียนสุเหร่าบางชัน,1010,หมู่ 15 ถ.สุขาภิบาล 2 แขวงมีนบุรี เขตมีนบุรี,683970.065,1530124.083
167,Point,2,3110023104,มีนบุรี,โรงเรียนบ้านเกาะ,1010,24 ถ.สุวินทวงศ์ แขวงแสนแสบ เขตมีนบุรี,692547.231,1528813.145
168,Point,2,3110023107,มีนบุรี,โรงเรียนวัดทองสัมฤทธิ์,1010,50/1 หมู่ 18 ถ.คุ้มเกล้า แขวงแสนแสบ เขตมีนบุรี,693143.562,1526429.74
169,Point,2,3110023113,มีนบุรี,โรงเรียนสุเหร่าทรายกองดิน,1010,61 หมู่ 8 ถ.ราษฏร์อุทิศ แขวงแสนแสบ เขตมีนบุรี,691660.445,1530124.083
170,Point,3,3110013202,ลาดกระบัง,โรงเรียนวัดปลูกศรัทธา,1011,85/1 หมู่ 3 แขวงลาดกระบัง เขตลาดกระบัง,691206.944,1518270.119
171,Point,3,3110013204,ลาดกระบัง,โรงเรียนวัดบำรุงรื่น,1011,61 หมู่ 3 ถ.ร่มเกล้า แขวงคลองสาม เขตลาดกระบัง,689844.547,1519954.028
172,Point,3,3110013205,ลาดกระบัง,โรงเรียนวัดพลมานีย์,1011,22 หมู่ 2 ถ.ประชาพัฒนา แขวงทับยาว เขตลาดกระบัง,694435.528,1517824.6
173,Point,2,3110013206,ลาดกระบัง,โรงเรียนวัดสุทธาโภชน์,1011,139 หมู่ 7 ถ.ฉลองกรุง แขวงทับยาว เขตลาดกระบัง,694136.013,1519722.197
174,Point,3,3110013207,ลาดกระบัง,โรงเรียนแสงหิรัญวิทยา,1011,99 หมู่ 3 ถ.หลวงแพ่ง แขวงทับยาว เขตลาดกระบัง,696053.756,1516699.07
175,Point,1,3110013208,ลาดกระบัง,โรงเรียนประสานสามัคคี (บ้านทับยาว),1011,97/2 หมู่ 8 ถ.ทับยาว แขวงทับยาว เขตลาดกระบัง,698720.425,1518825.896
176,Point,2,3110013209,ลาดกระบัง,โรงเรียนวัดบึงบัว,1011,57 หมู่ 4 ถ.คุ้มเกล้า แขวงลำปลาทิว เขตลาดกระบัง,692083.395,1522466.12
177,Point,2,3110013210,ลาดกระบัง,โรงเรียนวัดทิพพาวาส,1011,68 หมู่ 7 ถ.ฉลองกรุง 5 แขวงลำปลาทิว เขตลาดกระบัง,694745.046,1524177.245
178,Point,3,3110013211,ลาดกระบัง,โรงเรียนลำพะอง ,1011,49 หมู่ 8 ถ.ฉลองกรุง แขวงลำปลาทิว เขตลาดกระบัง,695932.417,1523393.03
179,Point,1,3110013213,ลาดกระบัง,โรงเรียนวัดขุมทอง,1011,11 หมู่ 5 ถ.ขุมทอง แขวงขุมทอง เขตลาดกระบัง,700214.534,1517756.267
180,Point,1,3110013214,ลาดกระบัง,โรงเรียนตำบลขุมทอง (ประชาอุทิศ),1011,68 หมู่ 7 แขวงขุมทอง เขตลาดกระบัง,700794.853,1521388.2
181,Point,1,3110013215,ลาดกระบัง,โรงเรียนขุมทอง(เพชรทองคำอุปถัมภ์),1011,130 หมู่ 5 แขวงขุมทอง เขตลาดกระบัง,700328.375,1519923.923
182,Point,3,3110013217,ลาดกระบัง,โรงเรียนวัดปากบึง,1011,46 หมู่ 6 ถ.ร่มเกล้า แขวงคลองสอง เขตลาดกระบัง,687908.923,1523725.242
183,Point,1,3110013218,ลาดกระบัง,โรงเรียนสุเหร่าลำนายโส,1011,30 หมู่ 4 แขวงคลองสองต้นนุ่น เขตลาดกระบัง,686418.749,1523561.933
184,Point,1,3110013219,ลาดกระบัง,โรงเรียนแดงเป้า (สิงสุขบูรณะ),1011,79 หมู่ 1 แขวงคลองสองต้นนุ่น เขตลาดกระบัง,686439.602,1520549.973
185,Point,3,3110013220,ลาดกระบัง,โรงเรียนเคหะชุมชนลาดกระบัง,1011,3 หมู่ 3 ถ.ร่มเกล้า แขวงคลองสองต้นนุ่น เขตลาดกระบัง,687082.071,1522489.571
186,Point,3,3110023201,ลาดกระบัง,โรงเรียนวัดลาดกระบัง,1011,125 หมู่ 4 ถ.ร่มเกล้า แขวงลาดกระบัง เขตลาดกระบัง,689492.343,1518221.303
187,Point,3,3110023203,ลาดกระบัง,โรงเรียนวัดสังฆราชา,1011,336 หมู่ 5 ถ.อ่อนนุช แขวงลาดกระบัง เขตลาดกระบัง,687904.451,1518140.442
188,Point,3,3110023212,ลาดกระบัง,โรงเรียนวัดราชโกษา,1011,77 หมู่ 1 ซ.หลวงแพ่ง แขวงขุมทอง เขตลาดกระบัง,700203.91,1515272.52
189,Point,3,3110023216,ลาดกระบัง,โรงเรียนวัดลานบุญ,1011,19 หมู่ 7 ถ.อ่อนนุช แขวงลาดกระบัง เขตลาดกระบัง,685991.901,1518024.824
190,Point,3,3110013301,หนองจอก,โรงเรียนวัดหนองจอก (ภักดีนรเศรษฐ),1003,18 หมู่ 2 ถ.เลียบวารี แขวงกระทุ่มราย เขตหนองจอก,701051.281,1532706.77
191,Point,2,3110013302,หนองจอก,โรงเรียนสุเหร่าหะยีมินา,1003,หมู่ 4 ถ.สังฆสันติสุข แขวงกระทุ่มราย เขตหนองจอก,702036.597,1532511.74
192,Point,1,3110013303,หนองจอก,โรงเรียนสุเหร่าบ้านเกาะ,1003,14 หมู่ 1 แขวงหนองจอก เขตหนองจอก,703531.964,1534628.348
193,Point,1,3110013304,หนองจอก,โรงเรียนลำบุหรี่พวง,1003,หมู่ 14 ลำบุหรี่พวง แขวงคลองสิบ เขตหนองจอก,699856.6,1536112.92
194,Point,1,3110013306,หนองจอก,โรงเรียนสุเหร่าศาลาแดง,1003,25 หมู่ 5 ถ.ผ่องพันธ์ แขวงหนองจอก เขตหนองจอก,705042.43,1531984.938
195,Point,1,3110013307,หนองจอก,โรงเรียนสุเหร่าใหม่,1003,6 คลองแสนแสบ แขวงหนองจอก เขตหนองจอก,703763.844,1532317.764
196,Point,1,3110013308,หนองจอก,โรงเรียนสามแยกท่าไข่,1003,หมู่ 6 ถ.สังฆสันติสุข แขวงกระทุ่มราย เขตหนองจอก,704365.209,1531713.535
197,Point,1,3110013309,หนองจอก,โรงเรียนหลวงแพ่ง (บำรุงรัฐกิจ),1003,24/1หมู่ 12 แขวงกระทุ่มราย เขตหนองจอก,709183.061,1528196.253
198,Point,1,3110013310,หนองจอก,โรงเรียนนีลราษฎร์อุปถัมภ์,1003,59/60 หมู่ 10 แขวงกระทุ่มราย เขตหนองจอก,706495.25,1530341.776
199,Point,3,3110013311,หนองจอก,โรงเรียนบ้านเจียรดับ,1003,แขวงโคกแฝด เขตหนองจอก,697623.8,1532457.564
200,Point,3,3110013312,หนองจอก,โรงเรียนวัดทรัพย์สโมสร,1003,42 แขวงโคกแฝด เขตหนองจอก,694944.208,1531939.519
201,Point,1,3110013313,หนองจอก,โรงเรียนสุเหร่านาตับ,1003,หมู่ 9 ถ.เลียบวารี แขวงโคกแฝด เขตหนองจอก,696301.614,1529246.836
202,Point,1,3110013314,หนองจอก,โรงเรียนสุเหร่าอีรั้ว,1003,250 หมู่ 7 ถ.เชื่อมสัมพันธ์ แขวงโคกแฝด เขตหนองจอก,698004.647,1528595.522
203,Point,1,3110013315,หนองจอก,โรงเรียนอิสลามลำไทร,1003,หมู่ 5 ลำไทร แขวงโคกแฝด เขตหนองจอก,699017.126,1529939.171
204,Point,2,3110013316,หนองจอก,โรงเรียนบ้านลำต้นกล้วย,1003,16/6 หมู่ 6 แขวงโคกแฝด เขตหนองจอก,700024.688,1528471.186
205,Point,2,3110013317,หนองจอก,โรงเรียนวัดพระยาปลา,1003,15/1 ถ.ประชาสำราญ แขวงคลองสิบสอง เขตหนองจอก,701298.068,1538971.775
206,Point,1,3110013318,หนองจอก,โรงเรียนวัดแสนเกษม,1003,14 หมู่ 8 แขวงคลองสิบสอง เขตหนองจอก,704204.625,1537996.7
207,Point,1,3110013319,หนองจอก,โรงเรียนวัดใหม่เจริญราษฎร์,1003,หมู่ 11 คลองสิบสี่ แขวงคลองสิบสอง เขตหนองจอก,705971.763,1536091.943
208,Point,1,3110013321,หนองจอก,โรงเรียนวัดสีชมพู,1003,1/1 หมู่ 4 ถ.คลองสิบ แขวงคลองสิบ เขตหนองจอก,696880.881,1540651.794
209,Point,1,3110013322,หนองจอก,โรงเรียนลำเจดีย์,1003,หมู่ 5 ถ.คู้คลองสิบ แขวงคู้ฝั่งเหนือ เขตหนองจอก,696679.84,1534982.696
210,Point,1,3110013323,หนองจอก,โรงเรียนสุเหร่าคลองเก้า,1003,หมู่ 2 คลองเก้า แขวงคลองสิบ เขตหนองจอก,693709.805,1537920.582
211,Point,1,3110013324,หนองจอก,โรงเรียนสุเหร่าคลองสิบ,1003,18 หมู่ 8 แขวงคลองสิบ เขตหนองจอก,695800.434,1537869.417
212,Point,1,3110013325,หนองจอก,โรงเรียนสุเหร่าคลองสิบเอ็ด,1003,58 หมู่ 11 แขวงคลองสิบ เขตหนองจอก,698699.258,1538865.16
213,Point,1,3110013326,หนองจอก,โรงเรียนสุเหร่าสนามกลางลำ,1003,หมู่ 8 ถ.แขวงคู้ฝั่งเหนือ เขตหนองจอก,697589.945,1536885.721
214,Point,1,3110013327,หนองจอก,โรงเรียนวัดใหม่กระทุ่มล้ม,1003,หมู่ 4 ถ.ร่วมพัฒนา แขวงลำต้อยติ่ง เขตหนองจอก,702287.399,1524177.211
215,Point,1,3110013328,หนองจอก,โรงเรียนผลลีรุ่งเรือง,1003,หมู่ 13 หลวงแพ่ง แขวงกระทุ่มราย เขตหนองจอก,706626.609,1525597.874
216,Point,2,3110024611,หนองจอก,โรงเรียนวัดราษฎร์บำรุง,1003,8 หมู่ 8 ถ.สุวินทวงศ์ แขวงลำต้อยติ่ง เขตหนองจอก,703021.454,1527626.537
217,Point,1,3110013330,หนองจอก,โรงเรียนคลองสอง,1003,20/3 หมู่.8 ถ.สุวินทวงศ์ แขวงลำต้อยติ่ง เขตหนองจอก,704138.463,1526674.928
218,Point,1,3110013331,หนองจอก,โรงเรียนคารีอุปถัมภ์,1003,55/4 หมู่ 8 ซ.สมานศักดิ์ แขวงลำผักชี เขตหนองจอก,700955.164,1524900.053
219,Point,1,3110013333,หนองจอก,โรงเรียนศิริวังวิทยาคาร,1003,หมู่ 10 ถ.สุวินทวงศ์ แขวงลำผักชี เขตหนองจอก,699539.029,1526781.742
220,Point,1,3110013335,หนองจอก,โรงเรียนอู่ตะเภา,1003,21 หมู่ 4 ถ.ฉลองกรุง แขวงลำผักชี เขตหนองจอก,695965.263,1525426.409
221,Point,1,3110013337,หนองจอก,โรงเรียนลำผักชี,1003,หมู่ 10 ถ.สุวินทวงศ์ แขวงลำผักชี เขตหนองจอก,698427.831,1525445.245
222,Point,3,3110023305,หนองจอก,โรงเรียนหนองจอกพิทยานุสรณ์,1003,31/1 หมู่ 9 มิตรไมตรี แขวงหนองจอก เขตหนองจอก,700383.956,1533406.661
223,Point,3,3110023320,หนองจอก,โรงเรียนวัดสามง่าม,1003,1 หมู่ 8 ถ.คู้คลองสิบ แขวงคู้ฝั่งเหนือ เขตหนองจอก,695318.588,1536192.64
224,Point,2,3110023332,หนองจอก,โรงเรียนสุเหร่าลำแขก,1003,หมู่ 9 ถ.สุวินทวงศ์ แขวงลำผักชี เขตหนองจอก,701026.02,1526850.713
225,Point,3,3110023334,หนองจอก,โรงเรียนสังฆประชานุสรณ์,1003,3/3-4 หมู่ 7 แขวงลำผักชี เขตหนองจอก,698553.596,1523019.756
226,Point,2,3110023336,หนองจอก,โรงเรียนวัดลำต้อยติ่ง,1003,หมู่ 1 ถ.วิบูลย์สาธุกิจ แขวงลำต้อยติ่ง เขตหนองจอก,704204.565,1521483.961
227,Point,3,3110012101,บึงกุ่ม,โรงเรียนวัดบางเตย,1027,39 หมู่ 6 ถ.นวมินทร์ แขวงคลองกุ่ม เขตบึงกุ่ม,678268.775,1526593.637
228,Point,2,3110012102,บึงกุ่ม,โรงเรียนประภาสวิทยา,1027,30/117 หมู่ 13 ถ.นวมินทร์ แขวงคลองกุ่ม เขตบึงกุ่ม,679683.748,1526691.195
229,Point,2,3110012103,บึงกุ่ม,โรงเรียนคลองลำเจียก,1027,33/4 หมู่ 9 ถ.นวลจันทร์ แขวงคลองกุ่ม เขตบึงกุ่ม,676680.164,1528240.469
230,Point,2,3110012104,บึงกุ่ม,โรงเรียนวัดนวลจันทร์,1027,43/4 ซ.รามอินทรา 40 แขวงคลองกุ่ม เขตบึงกุ่ม,675866.617,1528233.068
231,Point,1,3110012105,บึงกุ่ม,โรงเรียนวัดพิชัย,1027,30/1 หมู่ 1 ถ.เสรีไทย แขวงคลองกุ่ม เขตบึงกุ่ม,679308.11,1523242.708
232,Point,3,3110012107,บึงกุ่ม,โรงเรียนพิชัยพัฒนา,1027,87/1 หมู่ 1 ถ.เสรีไทย แขวงคลองกุ่ม เขตบึงกุ่ม,679083.353,1523274.291
233,Point,3,3110012108,บึงกุ่ม,โรงเรียนแย้มจาดวิชชานุสรณ์,1027,39/359 หมู่ 11 ถ.นวมินทร์ แขวงคลองกุ่ม เขตบึงกุ่ม,678599.391,1529828.953
234,Point,3,3110022106,บึงกุ่ม,โรงเรียนคลองกุ่ม(เสรีไทย อนุสรณ์),1027,106/4 หมู่ 4 ถ.เสรีไทย แขวงคลองกุ่ม เขตบึงกุ่ม,680937.294,1524682.471
235,Point,3,3110011501,ประเวศ,โรงเรียนวัดตะกล่ำ,1032,26 หมู่ 3 แขวงหนองบอน เขตประเวศ,680073.009,1512585.054
236,Point,2,3110011502,ประเวศ,โรงเรียนแก่นทองอุปถัมภ์,1032,14 หมู่ 7 ถ.ศรีนครินทร์ แขวงหนองบอน เขตประเวศ,678586.944,1514741.431
237,Point,3,3110011503,ประเวศ,โรงเรียนวัดกระทุ่มเสือปลา,1032,6 หมู่ 3 ซ.อ่อนนุช 67 แขวงประเวศ เขตประเวศ,682613.383,1517695.187
238,Point,1,3110011504,ประเวศ,โรงเรียนคลองมะขามเทศ,1032,1/2 หมู่ 1 ถ.สุขาภิบาล 1 แขวงดอกไม้ เขตประเวศ,681264.821,1514888.058
239,Point,3,3110011505,ประเวศ,โรงเรียนสุเหร่าจรเข้ขบ,1032,33 หมู่ 8 แขวงประเวศ เขตประเวศ,683026.823,1515975.186
240,Point,2,3110011506,ประเวศ,โรงเรียนสุเหร่าทางควาย,1032,9/4 หมู่ 5 ถ.สุขุมวิท แขวงประเวศ เขตประเวศ,680961.319,1517886.561
241,Point,1,3110011507,ประเวศ,โรงเรียนสุเหร่าทับช้าง,1032,354 หมู่ 3 ถ.กรุงเทพ-ชลบุรี แขวงประเวศ เขตประเวศ,682614.632,1518896.689
242,Point,2,3110011508,ประเวศ,โรงเรียนสุเหร่าบึงหนองบอน,1032,213 หมู่ 11 ถ.อ่อนนุช 70 แขวงประเวศ เขตประเวศ,678596.88,1516668.183
243,Point,1,3110011509,ประเวศ,โรงเรียนสุเหร่าศาลาลอย,1032,36 หมู่ 10 ถ.อ่อนนุช 72 แขวงประเวศ เขตประเวศ,680367.944,1516332.934
244,Point,1,3110011510,ประเวศ,โรงเรียนสุเหร่าบ้านม้า,1032,325 หมู่ 5 ถ.มอเตอร์เวย์ แขวงประเวศ เขตประเวศ,680677.836,1519122.594
245,Point,2,3110011512,ประเวศ,โรงเรียนงามมานะ,1032,10/1 หมู่ 6 ถ.อ่อนนุช แขวงประเวศ เขตประเวศ,679686.483,1517335.385
246,Point,2,3110011513,ประเวศ,โรงเรียนคชเผือกอนุสรณ์,1032,18 หมู่ 1 ถ.สุขุมวิท แขวงดอกไม้ เขตประเวศ,681694.697,1514351.558
247,Point,3,3110011514,ประเวศ,โรงเรียนงามมานะ (แผน-ทับอุทิศ),1032,10/11 หมู่ 11 แขวงประเวศ เขตประเวศ,679719.256,1516193.058
248,Point,3,3110011515,ประเวศ,โรงเรียนอยู่เป็นสุขอนุสรณ์,1032,10 หมู่ 1 ถ.ศรีนครินทร์ แขวงหนองบอน เขตประเวศ,677182.42,1514177.819
249,Point,3,3110021511,ประเวศ,โรงเรียนคลองปักหลัก,1032,28 หมู่ 6 แขวงดอกไม้ เขตประเวศ,683680.951,1513091.558
250,Point,3,3110021516,ประเวศ,โรงเรียนมัธยมสุวิทย์เสรีอนุสรณ์,1032,10/11 หมู่ 11 แขวงประเวศ เขตประเวศ,679731.162,1516184.155
251,Point,3,3110014201,คันนายาว,โรงเรียนจินดาบำรุง,1043,37 ซ.คู้บอน 13 ถ.เสรีไทย แขวงคันนายาว เขตคันนายาว,679361.497,1531596.415
252,Point,3,3110014202,คันนายาว,โรงเรียนคันนายาว,1043,37 ถ.เสรไทย แขวงคันนายาว เขตคันนายาว,683213.065,1525503.571
253,Point,2,3110014102,สะพานสูง,โรงเรียนวัดลาดบัวขาว,1044,33 หมู่ 14 แขวงสะพานสูง เขตสะพานสูง,683422.881,1521646.942
254,Point,1,3110014101,สะพานสูง,โรงเรียนสุเหร่าทับช้างคลองบน,1044,79 หมู่ 16 ถ.กรุงเทพกรีฑา แขวงประเวศ เขตสะพานสูง,683769.702,1520023.21
255,Point,3,3110014103,สะพานสูง,โรงเรียนสมโภชกรุงอนุสรณ์ (200 ปี),1044,100/603 หมู่ 16 แขวงประเวศ เขตสะพานสูง,682978.206,1519647.931
256,Point,2,3110014105,สะพานสูง,โรงเรียนสุเหร่าลาดบัวขาว,1044,63/1 หมู่ 9 ถ.ราษฎร์พัฒนา แขวงสะพานสูง เขตสะพานสูง,685247.373,1522935.257
257,Point,3,3110024104,สะพานสูง,โรงเรียนสุเหร่าซีรอ (ราษฎร์สามัคคี),1044,25/2 หมู่ แขวงสะพานสูง เขตสะพานสูง,683233.351,1522841.491
258,Point,2,3110024106,สะพานสูง,โรงเรียนสามแยกคลองหลอแหล,1044,19 หมู่ 7 แขวงสะพานสูง เขตสะพานสูง,683962.379,1524084.82
259,Point,3,3110024402,คลองสามวา,โรงเรียนบางชัน (ปลื้มวิทยานุสรณ์),1046,89 หมู่ 4 แขวงบางชัน เขตคลองสามวา,683504.58,1528234.844
260,Point,2,3110014401,คลองสามวา,โรงเรียนกลางคลองสอง (พร  ดีเจริญ),1046,35 หมู่ 7 แขวงสามวาตะวันตก เขตคลองสามวาา,683628.072,1533117.098
261,Point,1,3110014403,คลองสามวา,โรงเรียนบ้านแบนชะโด (เสียง วิฑูรชาติ อุปถัมภ์),1046,45 ถ.ประชาร่วมใจ แขวงทรายกองดิน เขตคลองสามวา,692736.135,1534785.683
262,Point,2,3110014404,คลองสามวา,โรงเรียนบ้านหนองระแหง (ชมแสงประชานุกูล),1046,12 หมู่ 10 แขวงสามวาตะวันตก เขตคลองสามวา,682678.549,1537459.467
263,Point,3,3110014405,คลองสามวา,โรงเรียนประชาราษฎร์อุปถัมภ์วิทยา,1046,1051 ถ.พระยาสุเรนทร์ แขวงบางชัน เขตคลองสามวา,683268.614,1531129.505
264,Point,3,3110014407,คลองสามวา,โรงเรียนวัดบัวแก้ว,1046,14 หมู่ 2 แขวงทรายกองดิน เขตคลองสามวา,687117.02,1531904.896
265,Point,3,3110014408,คลองสามวา,โรงเรียนวัดแป้นทอง(สามวาวิทยา),1046,26 หมู่ 4 แขวงสามวาตะวันตก เขตคลองสามวา,684631.375,1535740.179
266,Point,2,3110014409,คลองสามวา,โรงเรียนวัดพระยาสุเรนทร์,1046,32/3 หมู่ 8 แขวงสามวาตะวันตก เขตคลองสามวา,682233.309,1534424.334
267,Point,2,3110014410,คลองสามวา,โรงเรียนวัดลำกะดาน,1046,40 หมู่ 10 แขวงสามวาตะวันตก เขตคลองสามวา,689435.308,1539297.849
268,Point,1,3110014411,คลองสามวา,โรงเรียนวัดศรีสุก,1046,35 หมู่ 8 แขวงสามวาตะวันตก เขตคลองสามวา,693588.462,1539455.275
269,Point,1,3110014412,คลองสามวา,โรงเรียนวัดสุขใจ,1046,8 หมู่ 6 แขวงสามวาตะวันตก เขตคลองสามวา,691685.716,1534269.45
270,Point,3,3110014413,คลองสามวา,โรงเรียนวัดสุทธิสะอาด,1046,หมู่ 4 แขวงสามวาตะวันตก เขตคลองสามวา,687182.683,1534853.477
271,Point,1,3110014414,คลองสามวา,โรงเรียนสุเหร่าเกาะขุนเณร,1046,หมู่ 12 แขวงทรายกองดินใต้ เขตคลองสามวา,693014.122,1532449.212
272,Point,1,3110014415,คลองสามวา,โรงเรียนสุเหร่าคลองสี่,1046,20 หมู่ 15 ถ.ไมตรีจิต เขตคลองสามวา,691258.372,1538777.681
273,Point,3,3110014416,คลองสามวา,โรงเรียนสุเหร่าคลองหนึ่ง,1046,15/6 หมู่ 11 แขวงบางชัน เขตคลองสามวา,684872.222,1530957.892
274,Point,2,3110014417,คลองสามวา,โรงเรียนสุเหร่าสามวา,1046,1/1 หมู่ 1 แขวงสามวาตะวันตก เขตคลองสามวา,686717.859,1538063.122
275,Point,3,3110024406,คลองสามวา,โรงเรียนวัดคู้บอน (วัฒนานันท์อุทิศ),1046,59 ซ.วัดคู้บอน35 แขวงบางชัน เขตคลองสามวา,680827.655,1532236.365
276,Point,3,3110024418,คลองสามวา,โรงเรียนสุเหร่าแสนแสบ,1046,50 หมู่ 10 แขวงทรายกองดินใต้ เขตคลองสามวา,689310.2,1529134.651
277,Point,1,3110012201,ธนบุรี,โรงเรียนวัดประยุรวงค์,1015,24/1 ถ.ประชาธิปก แขวงวัดกัลยาณ์ เขตธนบุรี,661600.831,1519150.269
278,Point,1,3110012202,ธนบุรี,โรงเรียนวัดขุนจันทร์,1015,1144 ถ.เทอดไท แขวงตลาดพลู เขตธนบุรี,659052.841,1517227.434
279,Point,1,3110012203,ธนบุรี,โรงเรียนวัดบุคคโล,1015,349 ถ.เจริญนคร แขวงบุคคโล เขตธนบุรี,660949.378,1515084.862
280,Point,1,3110012204,ธนบุรี,โรงเรียนวัดดาวคนอง,1015,ถ.เจริญนคร แขวงบุคคโล เขตธนบุรี,660931.72,1514637.068
281,Point,1,3110012205,ธนบุรี,โรงเรียนวัดกัลยาณมิตร,1015,656 ถ.เทศบาลสาย 1 แขวงวัดกัลยาณ์ เขตธนบุรี,661192.663,1519541.817
282,Point,1,3110012206,ธนบุรี,โรงเรียนวัดราชคฤห์,1015,518 ถ.เทอดไท แขวงบางยี่เรือ เขตธนบุรี,660038.733,1517549.92
283,Point,1,3110012207,ธนบุรี,โรงเรียนวัดประดิษฐาราม,1015,33 ถ.อิสรภาพ แขวงหิรัญจี เขตธนบุรี,660837.21,1518847.574
284,Point,3,3110012208,ธนบุรี,โรงเรียนวัดบางสะแกใน,1015,1587 ถ.ริมทางรถไฟ แขวงตลาดพลู เขตธนบุรี,659551.359,1516312.918
285,Point,2,3110012209,ธนบุรี,โรงเรียนวัดเวฬุราชิณ,1015,154/1 ถ.เทอดไท แขวงบางยี่เรือ เขตธนบุรี,660679.433,1517945.094
286,Point,1,3110012210,ธนบุรี,โรงเรียนกันตทาราราม,1015,ถ.รัชดาภิเษก 14 แขวงตลาดพลู เขตธนบุรี,659857.421,1516989.044
287,Point,2,3110012211,ธนบุรี,โรงเรียนวัดโพธินิมิตร,1015,309 ถ.เทอดไท แขวงบางยี่เรือ เขตธนบุรี,660543.672,1517337.045
288,Point,1,3110012212,ธนบุรี,โรงเรียนวัดใหม่ยายนุ้ย,1015,ถ.วุฒากาศ แขวงตลาดพลู เขตธนบุรี,658853.672,1516360.748
289,Point,3,3110012213,ธนบุรี,โรงเรียนวัดกระจับพินิจ,1015,300/1 ถ.ตากสิน แขวงบุคคโล เขตธนบุรี,660676.297,1516688.044
290,Point,1,3110012214,ธนบุรี,โรงเรียนวัดราชวรินทร์,1015,472 ถ.ตากสิน แขวงบุคคโล เขตธนบุรี,661403.832,1516060.705
291,Point,1,3110012215,ธนบุรี,โรงเรียนวัดบางสะแกนอก,1015,154 ถ.เทอดไท แขวงตลาดพลู เขตธนบุรี,659551.423,1516785.151
292,Point,1,3110012216,ธนบุรี,โรงเรียนวัดใหญ่ศรีสุพรรณ,1015,98 ถ.อินทรพิทักษ์ แขวงหิรัญจี เขตธนบุรี,660956.373,1518253.328
293,Point,1,3110012217,ธนบุรี,โรงเรียนวัดบางน้ำชน,1015,ถ.เจริญนคร แขวงบุคคโล เขตธนบุรี,661202.371,1515497.929
294,Point,1,3110012304,คลองสาน,โรงเรียนวัดทองธรรมชาติ,1018,ถ.เชียงใหม่ แขวงคลองสาน เขตคลองสาน,662884.248,1518818.941
295,Point,1,3110012305,คลองสาน,โรงเรียนวัดทองนพคุณ,1018,4645 แขวงคลองสาน เขตคลองสาน,663092.173,1518721.173
296,Point,1,3110012306,คลองสาน,โรงเรียนวัดพิชัยญาติ,1018,685 แขวงสมเด็จเจ้าพระยา เขตคลองสาน,661884.547,1518671.797
297,Point,2,3110012307,คลองสาน,โรงเรียนวัดสุวรรณ,1018,27 ถ.เจริญนคร แขวงคลองต้นไทร เขตคลองสาน,663329.362,1517735.297
298,Point,3,3110022301,คลองสาน,โรงเรียนวัดเศวตฉัตร,1018,1223/1 ถ.เจริญนคร 25 แขวงบางลำภูล่าง เขตคลองสาน,662856.652,1516506.765
299,Point,3,3110022302,คลองสาน,โรงเรียนวัดสุทธาราม,1018,403/1 ถ.เจริญนคร แขวงบางลำภูล่าง เขตคลองสาน,661490.236,1516496.919
300,Point,3,3110022303,คลองสาน,โรงเรียนวัดทองเพลง,1018,135 ถ.เจริญนคร 14 แขวงคลองต้นไทร เขตคลองสาน,662270.908,1517758.594
301,Point,,3110022308,คลองสาน,โรงเรียนมัธยมวัดสุทธาราม,,,,
302,Point,3,3110013001,บางกอกใหญ่,โรงเรียนวัดราชสิทธาราม,1016,94 แขวงวัดท่าพระ เขตบางกอกใหญ่,660566.425,1519000.887
303,Point,3,3110013002,บางกอกใหญ่,โรงเรียนวัดท่าพระ,1016,30 แขวงวัดท่าพระ เขตบางกอกใหญ่,659247.357,1518736.42
304,Point,2,3110013003,บางกอกใหญ่,โรงเรียนวัดประดู่ฉิมพลี,1016,1162 แขวงวัดท่าพระ เขตบางกอกใหญ่,658853.702,1517698.297
305,Point,1,3110013004,บางกอกใหญ่,โรงเรียนวัดใหม่พิเรนทร์,1016,611 แขวงวัดอรุณ เขตบางกอกใหญ่,660264.837,1519594.097
306,Point,1,3110013005,บางกอกใหญ่,โรงเรียนวัดดีดวด,1016,116/13 แขวงวัดท่าพระ เขตบางกอกใหญ่,659460.251,1519595.906
307,Point,1,3110013006,บางกอกใหญ่,โรงเรียนวัดนาคกลาง,1016,761 แขวงวัดอรุณ เขตบางกอกใหญ่,660450.994,1520120.713
308,Point,1,3110012701,บางกอกน้อย,โรงเรียนวัดบางขุนนนท์,1020,31/8/1 แขวงบางขุนนนท์ เขตบางกอกน้อย,658812.564,1522449.191
309,Point,1,3110012702,บางกอกน้อย,โรงเรียนวัดวิเศษการ,1020,42/3 ถ.พรานนก แขวงศิริราช เขตบางกอกน้อย,660272.826,1521337.624
310,Point,1,3110012703,บางกอกน้อย,โรงเรียนวัดเจ้าอาม,1020,137 แขวงบางขุนนนท์ เขตบางกอกน้อย,658359.44,1523412.78
311,Point,1,3110012704,บางกอกน้อย,โรงเรียนวัดโพธิ์เรียง,1020,106/5 แขวงบ้านช่างหล่อ เขตบางกอกน้อย,659139.568,1519937.162
312,Point,3,3110012705,บางกอกน้อย,โรงเรียนวัดยางสุทธาราม,1020,767/92-94 แขวงบ้านช่างหล่อ เขตบางกอกน้อย,659365.423,1521000.278
313,Point,1,3110012706,บางกอกน้อย,โรงเรียนวัดศรีสุดาราม,1020,54/8 แขวงบางขุนนนท์ เขตบางกอกน้อย,659195.348,1522424.09
314,Point,1,3110012707,บางกอกน้อย,โรงเรียนวัดบางเสาธง,1020,834 แขวงบางขุนศรี เขตบางกอกน้อย,658666.032,1519806.613
315,Point,2,3110012708,บางกอกน้อย,โรงเรียนวัดสุวรรณาราม,1020,375/2 ถ.จรัญสนิทวงศ์ 32 เขตบางกอกน้อย,659752.997,1521907.516
316,Point,1,3110012709,บางกอกน้อย,โรงเรียนวัดพระยาทำ,1020,161/9 แขวงบ้านช่างหล่อ เขตบางกอกน้อย,660386.309,1520391.384
317,Point,1,3110012711,บางกอกน้อย,โรงเรียนวัดดงมูลเหล็ก,1020,69/2 ถ.อิสรภาพ แขวงบ้านช่างหล่อ เขตบางกอกน้อย,659514.93,1520725.622
318,Point,1,3110012712,บางกอกน้อย,โรงเรียนวัดอัมพวา,1020,111 แขวงบ้านช่างหล่อ เขตบางกอกน้อน,659551.143,1520412.658
319,Point,1,3110012713,บางกอกน้อย,โรงเรียนวัดสุวรรณคีรี,1020,796/1 แขวงอรุณอัมรินทร์ เขตบางกอกน้อย,658711.949,1523971.514
320,Point,2,3110012714,บางกอกน้อย,โรงเรียนวัดดุสิตาราม,1020,9/13 แขวงอรุณอัมรินทร์ เขตบางกอกน้อย,660782.595,1522128.179
321,Point,1,3110012715,บางกอกน้อย,โรงเรียนวัดปฐมบุตรอิศราราม,1020,197/1 แขวงอรุณอัมรินทร์ เขตบางกอกน้อย,659640.259,1523142.593
322,Point,2,3110022710,บางกอกน้อย,โรงเรียนวัดมะลิ,1020,487/13 แขวงบางขุนศรี เขตบางกอกน้อย,657903.265,1521908.381
323,Point,1,3110012901,ตลิ่งชัน,โรงเรียนวัดไก่เตี้ย (สวัสดิ์ประชานุกูล),1019,11/1 หมู่ 2 ถ.ตลิ่งชัน-ชัยพฤกษ์ แขวงตลิ่งชัน เขตตลิ่งชัน,658418.12,1524424.865
324,Point,2,3110012902,ตลิ่งชัน,โรงเรียนวัดชัยพฤกษมาลา,1019,124 หมู่ 4 ถ.ชัยพฤกษ์ แขวงตลิ่งชัน เขตตลิ่งชัน,658601.474,1525453.591
325,Point,2,3110012903,ตลิ่งชัน,โรงเรียนชุมทางตลิ่งชัน,1019,291 หมู่ 11 ถ.สวนผัก แขวงตลิ่งชัน เขตตลิ่งชัน,655403.775,1525598.809
326,Point,1,3110012905,ตลิ่งชัน,โรงเรียนวัดทอง (อุดมศิลปวิทยาคาร),1019,23 หมู่ 15 ถ.บรมราชชนนี แขวงฉิมพลี เขตตลิ่งชัน,655907.325,1523237.639
327,Point,1,3110012906,ตลิ่งชัน,โรงเรียนวัดมะกอก(วิสุทธิวิทยาคาร),1019,24 หมู่ 8 แขวงบางระมาด เขตตลิ่งชัน,654379.773,1523360.232
328,Point,2,3110012907,ตลิ่งชัน,โรงเรียนวัดโพธิ์ (ราษฏร์ผดุงผล),1019,9/2 หมู่ 1 แขวงบางระมาด เขตตลิ่งชัน,654239.045,1522679.344
329,Point,2,3110012908,ตลิ่งชัน,โรงเรียนวัดอินทราวาส,1019,6 หมู่ 22 แขวงบางระมาด เขตตลิ่งชัน,654952.335,1521557.818
330,Point,2,3110012909,ตลิ่งชัน,โรงเรียนวัดปากน้ำฝั่งเหนือ,1019,942/2 แขวงคลองชักพระ เขตตลิ่งชัน,657753.969,1519893.763
331,Point,1,3110012910,ตลิ่งชัน,โรงเรียนวัดประสาท,1019,30 หมู่ 10 แขวงบางพรม เขตตลิ่งชัน,656706.441,1521458.987
332,Point,1,3110012911,ตลิ่งชัน,โรงเรียนวัดเกาะ,1019,38 หมู่ 9 แขวงบางเชือกหนัง เขตตลิ่งชัน,657445.673,1519736.643
333,Point,1,3110012912,ตลิ่งชัน,โรงเรียนวัดพิกุล,1019,2 หมู่ 5 แขวงบางเชือกหนัง เขตตลิ่งชัน,654927.552,1519587.092
334,Point,2,3110012913,ตลิ่งชัน,โรงเรียนวัดกระโจมทอง,1019,14 หมู่ 6 ถ.จรัญสนิทวงศ์ 35 แขวงบางพรม เขตตลิ่งชัน,656012.132,1520290.71
335,Point,1,3110012914,ตลิ่งชัน,โรงเรียนวัดรัชฎาธิฐาน,1019,692 แขวงคลองชักพระ เขตตลิ่งชัน,657152.232,1521552.902
336,Point,1,3110012915,ตลิ่งชัน,โรงเรียนวัดตลิ่งชัน,1019,300 ถ.ชักพระ แขวงคลองชักพระ เขตตลิ่งชัน,657490.548,1523764.602
337,Point,1,3110012916,ตลิ่งชัน,โรงเรียนวัดช่างเหล็ก,1019,430 ถ.ฉิมพลี แขวงคลองชักพระ เขตตลิ่งชัน,657128.261,1523222.004
338,Point,3,3110022904,ตลิ่งชัน,โรงเรียนฉิมพลี,1019,82/3 หมู่ 7 ถ.สวนผัก แขวงฉิมพลี เขตตลิ่งชัน,652740.244,1525074.966
339,Point,1,3110012801,บางพลัด,โรงเรียนวัดอาวุธวิกสิตาราม,1025,139 ซ.จรัญสนิทวงศ์ 72 แขวงบางพลัด เขตบางพลัด,662829.249,1525050.877
340,Point,1,3110012802,บางพลัด,โรงเรียนวัดพระยาศิริไอยสวรรค์,1025,482/12 แขวงบางยี่ขัน เขตบางพลัด,661429.919,1522682.034
341,Point,2,3110012803,บางพลัด,โรงเรียนวัดเปาโรหิตย์,1025,396 ถ.จรัญสนิทวงศ์ แขวงบางพลัด เขตบางพลัด,661628.315,1523916.953
342,Point,1,3110012804,บางพลัด,โรงเรียนวัดเทพากร (เลี่ยมมาตุทิศ),1025,583 ซ.จรัญสนิทวงศ์ 68 แขวงบางพลัด เขตบางพลัด,662435.468,1524621.482
343,Point,1,3110012805,บางพลัด,โรงเรียนวัดฉัตรแก้วจงกลณี,1025,110 ซ.จรัญสนิทวงศ์ 94 แขวงบางอ้อ เขตบางพลัด,663602.968,1526330.782
344,Point,2,3110012806,บางพลัด,โรงเรียนวัดวิมุตยาราม,1025,13 ซ.จรัญสนิทวงศ์ 98 แขวงบางอ้อ เขตบางพลัด,663718.345,1527326.153
345,Point,2,3110012807,บางพลัด,โรงเรียนวัดบางพลัด(ป.สุวณฺโณ),1025,821 ซ.จรัญสนิทวงศ์ 7 แขวงบางพลัด เขตบางพลัด,661979.933,1525293.573
346,Point,1,3110012808,บางพลัด,โรงเรียนวัดคฤหบดี,1025,707 ซ.จรัญสนิทวงศ์ 44 แขวงบางยี่ขัน เขตบางพลัด,661805.356,1523053.427
347,Point,2,3110012809,บางพลัด,โรงเรียนวัดรวก,1025,1158 ซ.จรัญสนิทวงศ์ 57 แขวงบางบำหรุ เขตบางพลัด,660471.173,1524035.887
348,Point,2,3110012810,บางพลัด,โรงเรียนวัดสามัคคีสุทธาวาส,1025,510 ซ.จรัญสนิทวงศ์85 แขวงบางอ้อ เขตบางพลัด,662391.283,1525827.149
349,Point,2,3110022811,บางพลัด,โรงเรียนบางยี่ขันวิทยาคม,1025,165 ถ.จรัญสนิทวงศ์ 42 แขวงบางยี่ขัน เขตบางพลัด,661131.252,1523399.464
350,Point,2,3110012601,จอมทอง,โรงเรียนวัดมงคลวราราม (สมพรพสกสรรค์),1035,68 ซ.วัฒนา(ตากสิน 46) แขวงบางค้อ เขตจอมทอง,660048.146,1514565.144
351,Point,3,3110012602,จอมทอง,โรงเรียนวัดนางนอง,1035,78 ถ.วุฒากาศ แขวงบางค้อ เขตจอมทอง,658621.671,1515379.666
352,Point,2,3110012603,จอมทอง,โรงเรียนวัดศาลาครืน,1035,ถ.วุฒากาศ แขวงบางค้อ เขตจอมทอง,657950.439,1515730.894
353,Point,3,3110012605,จอมทอง,โรงเรียนวัดสีสุก,1035,23 ถ.พระรามที่ 2 แขวงบางมด เขตจอมทอง,658345.693,1512698.968
354,Point,2,3110012606,จอมทอง,โรงเรียนวัดบางประทุนนอก,1035,22 หมู่ 10 แขวงบางขุนเทียน เขตจอมทอง,657779.541,1514454.912
355,Point,2,3110012607,จอมทอง,โรงเรียนวัดโพธิ์แก้ว(กระวลราษฎร์วิทยา),1035,16 ถ.พระรามที่ 2 แขวงบางมด เขตจอมทอง,660903.465,1513230.364
356,Point,3,3110012608,จอมทอง,โรงเรียนวัดนาคนิมิตร,1035,8 ถ.สุขสวัสดิ์ 8 แขวงจอมทอง เขตจอมทอง,660003.473,1513734.163
357,Point,2,3110012609,จอมทอง,โรงเรียนวัดบางขุนเทียนนอก,1035,1 หมู่ 7 แขวงจอมทอง เขตจอมทอง,658445.276,1514672.903
358,Point,3,3110022611,จอมทอง,โรงเรียนวัดไทร(ถาวรพรหมานุกูล),1035,12 หมู่ 2 ซ.วัดไทร แขวงบางขุนเทียน เขตจอมทอง,657420.915,1514030.026
359,Point,3,3110022604,จอมทอง,โรงเรียนวัดโพธิ์ทอง,1035,67/2 หมู่ 4 ซ.สุขสวัสดิ์ 26 แขวงบางมด เขตจอมทอง,659814.919,1511541.325
360,Point,3,3110022610,จอมทอง,โรงเรียนวัดยายร่ม(วัฒนราษฎร์รังสรรค์),1035,24 ถ.พระรามที่ 2 แขวงบางมด เขตจอมทอง,658405.217,1512219.342
361,Point,1,3110014901,ทวีวัฒนา,โรงเรียนคลองต้นไทร (สุขล้อมอุทิศ),1048,87/2 หมู่ 19 แขวงศาลาธรรมสพน์ เขตทวีวัฒนา,649593.057,1524213.53
362,Point,3,3110014902,ทวีวัฒนา,โรงเรียนคลองทวีวัฒนา(ทองน่วมอนุสรณ์),1048,155 หมู่ 1 แขวงทวีวัฒนา เขตทวีวัฒนา,646132.385,1521102.929
363,Point,2,3110014903,ทวีวัฒนา,โรงเรียนคลองบางพรหม,1048,53 หมู่ 12 แขวงศาลาธรรมสพน์ เขตทวีวัฒนา,647958.211,1522559.285
364,Point,2,3110014904,ทวีวัฒนา,โรงเรียนคลองมหาสวัสดิ์,1048,28/3 หมู่ 4 แขวงศาลาธรรมสพน์ เขตทวีวัฒนา,646178.312,1526315.764
365,Point,3,3110014905,ทวีวัฒนา,โรงเรียนวัดปุรณาวาส,1048,25 หมู่ 3 แขวงศาลาธรรมสพน์ เขตทวีวัฒนา,644326.004,1526176.919
366,Point,3,3110014906,ทวีวัฒนา,โรงเรียนตั้งพิรุฬห์ธรรม,1048,9/3 หมู่ 10 แขวงศาลาธรรมสพน์ เขตทวีวัฒนา,645319.429,1523738.067
367,Point,2,3110024907,ทวีวัฒนา,โรงเรียนมัธยมปุรณาวาส,1048,25 หมู่ 3 แขวงศาลาธรรมสพน์ เขตทวีวัฒนา,644517.99,1526147.1
368,Point,3,3110012401,ภาษีเจริญ,โรงเรียนวัดนิมมานรดี,1022,1 หมู่ 15 ถ.เพชรเกษม แขวงบางหว้า เขตภาษีเจริญ,654286.125,1516035.432
369,Point,3,3110012402,ภาษีเจริญ,โรงเรียนวัดจันทร์ประดิษฐาราม,1022,56 หมู่ 2 ถ.เพชรเกษม 48 แขวงบางด้วน เขตภาษีเจริญ,655747.566,1517340.924
370,Point,2,3110012404,ภาษีเจริญ,โรงเรียนวัดชัยฉิมพลี,1022,46 หมู่ 6 ถ.เพชรเกษม 48 แขวงบางแวก เขตภาษีเจริญ,654977.81,1518792.946
371,Point,2,3110012405,ภาษีเจริญ,โรงเรียนวัดโคนอน,1022,13 หมู่ 3-4 ถ.พัฒนาการ แขวงบางหว้า เขตภาษีเจริญ,657266.378,1516440.184
372,Point,2,3110012406,ภาษีเจริญ,โรงเรียนวัดมะพร้าวเตี้ย,1022,12 หมู่ 4 ถ.สายบางแวก แขวงคลองขวาง เขตภาษีเจริญ,653556.058,1519861.388
373,Point,1,3110012407,ภาษีเจริญ,โรงเรียนวัดโตนด,1022,40/1 หมู่ 1 แขวงบางแวก เขตภาษีเจริญ,657087.104,1519035.669
374,Point,1,3110012408,ภาษีเจริญ,โรงเรียนวัดตะล่อม,1022,4 หมู่ 1 ถ.สายบางแวก แขวงบางแวก เขตภาษีเจริญ,654462.222,1519586.482
375,Point,2,3110012409,ภาษีเจริญ,โรงเรียนวัดกำแพง,1022,54 หมู่ 10 แขวงบางแวก เขตภาษีเจริญ,656315.927,1519370.941
376,Point,2,3110012410,ภาษีเจริญ,โรงเรียนวัดทองศาลางาม,1022,229/11 ถ.เพชรเกษม 20 แขวงปากคลอง เขตภาษีเจริญ,658292.365,1518193.413
377,Point,2,3110012411,ภาษีเจริญ,โรงเรียนวัดวิจิตรการนิมิตร,1022,1099 ถ.จรัญสนิทวงศ์ 13 แขวงคูหาสวรรค์ เขตภาษีเจริญ,657880.135,1519441.613
378,Point,1,3110012412,ภาษีเจริญ,โรงเรียนวัดประดู่บางจาก(พ่วงอุทิศ),1022,163 ถ.เพชรเกษม 34 แขวงปากคลอง เขตภาษีเจริญ,657513.515,1517492.677
379,Point,1,3110012413,ภาษีเจริญ,โรงเรียนบางจาก(โกมลประเสริฐอุทิศ),1022,5 หมู่ 6 ถ.เพชรเกษม แขวงบางจาก เขตภาษีเจริญ,656404.702,1517990.378
380,Point,3,3110022403,ภาษีเจริญ,โรงเรียนวัดอ่างแก้ว (จีบ ปานขำ),1022,30 หมู่ 2 ถ.เพชรเกษม 27 แขวงบางหว้า เขตภาษีเจริญ,657132.386,1516811.152
381,Point,3,3110013501,หนองแขม,โรงเรียนวัดหนองแขม(สหราษฎร์บูรณะ),1023,ถ.เพชรเกษม 81 แขวงหนองแขม เขตหนองแขม,644858.15,1512402.508
382,Point,3,3110013503,หนองแขม,โรงเรียนประชาบำรุง,1023,ถ.เพชรเกษม 69 แขวงหนองแขม เขตหนองแขม,647484.361,1513503.642
383,Point,2,3110013505,หนองแขม,โรงเรียนมนต์จรัสสิงห์อนุสรณ์,1023,ถ.พุทธมณฑลสาย 3 แขวงหนองแขม เขตหนองแขม,646993.227,1517856.502
384,Point,3,3110013506,หนองแขม,โรงเรียนวัดศรีนวลธรรมวิมล,1023,ถ.เพชรเกษม 81 แขวงหนองแขม เขตหนองแขม,645351.111,1510193.908
385,Point,3,3110023502,หนองแขม,โรงเรียนวัดอุดมรังสี,1023,ถ.เพชรเกษม 79 แขวงหนองค้างพลู เขตหนองแขม,645887.719,1515402.157
386,Point,3,3110023504,หนองแขม,โรงเรียนบ้านขุนประเทศ,1023,ถ.เพชรเกษม 110 แขวงหนองค้างพลู เขตหนองแขม,645221.437,1517373.468
387,Point,1,3110012501,บางขุนเทียน,โรงเรียนหมู่บ้านเกาะโพธิ์,1021,22/3 หมู่ 10 แขวงแสมดำ เขตบางขุนเทียน,650392.704,1501494.064
388,Point,3,3110012503,บางขุนเทียน,โรงเรียนราชมนตรี  (ปลื้ม-เชื่อมนุกูล),1021,9/9 หมู่ 6 แขวงแสมดำ เขตบางขุนเทียน,655300.172,1508497.656
389,Point,1,3110012506,บางขุนเทียน,โรงเรียนแก้วขำทับอุปถัมภ์,1021,60/8 หมู่ 8 แขวงท่าข้าม เขตบางขุนเทียน,656792.81,1503210.723
390,Point,2,3110012507,บางขุนเทียน,โรงเรียนคลองพิทยาลงกรณ์,1021,54/3 หมู่ 10 แขวงท่าข้าม เขตบางขุนเทียน,653699.141,1495935.93
391,Point,3,3110012510,บางขุนเทียน,โรงเรียนศาลเจ้า (ห้าวนุกูลวิทยา),1021,53/10 หมู่ 6 แขวงแสมดำ เขตบางขุนเทียน,654349.452,1511027.643
392,Point,3,3110012511,บางขุนเทียน,โรงเรียนวัดท่าข้าม,1021,5 หมู่ 4 ถ.พระรามที่ 2 แขวงท่าข้าม เขตบางขุนเทียน,656541.585,1509731.22
393,Point,1,3110012512,บางขุนเทียน,โรงเรียนวัดบัวผัน,1021,7/1 หมู่ 2 แขวงท่าข้าม เขตบางขุนเทียน,659764.05,1505320.642
394,Point,2,3110012514,บางขุนเทียน,โรงเรียนวัดประชาบำรุง,1021,24 หมู่ 9 แขวงท่าข้าม เขตบางขุนเทียน,655929.421,1500561.468
395,Point,3,3110012515,บางขุนเทียน,โรงเรียนวัดเลา,1021,30 หมู่ 1 ถ.พระรามที่ 2 แขวงท่าข้าม เขตบางขุนเทียน,656531.287,1511268.03
396,Point,3,3110012516,บางขุนเทียน,โรงเรียนบางขุนเทียนศึกษา,1021,88/1268 หมู่ 6 แขวงแสมดำ เขตบางขุนเทียน,654112.726,1509143.959
397,Point,3,3110022502,บางขุนเทียน,โรงเรียนวัดหัวกระบือ,1021,3/1 หมู่ 7 แขวงท่าข้าม เขตบางขุนเทียน,656788.92,1506159.214
398,Point,3,3110022504,บางขุนเทียน,โรงเรียนวัดสะแกงาม,1021,87 หมู่ 1 ถ.พระรามที่ 2 แขวงแสมดำ เขตบางขุนเทียน,653532.72,1507677.266
399,Point,3,3110022505,บางขุนเทียน,โรงเรียนวัดแสมดำ,1021,40 หมู่ 3 ถ.พระรามที่ 2 แขวงแสมดำ เขตบางขุนเทียน,649972.393,1502908.591
400,Point,3,3110022508,บางขุนเทียน,โรงเรียนวัดบางกระดี่,1021,41หมู่ 8 ถ.พระรามที่ 2 แขวงท่าข้าม เขตบางขุนเทียน,652002.334,1503831.76
401,Point,3,3110022509,บางขุนเทียน,โรงเรียนวัดกำแพง,1021,45/62 หมู่ 6 ถ.พระรามที่ 2 แขวงท่าข้าม เขตบางขุนเทียน,656424.813,1512690.572
402,Point,3,3110022513,บางขุนเทียน,โรงเรียนวัดกก,1021,54 หมู่ 1 ถ.พระรามที่ 2 แขวงท่าข้าม เขตบางขุนเทียน,656748.521,1512109.003
403,Point,1,3110013403,ราษฎร์บูรณะ,โรงเรียนวัดประเสริฐสุทธาวาส,1024,10 หมู่ 4 แขวงบางปะกอก เขตราษฎร์บูรณะ,662613.401,1512850.023
404,Point,2,3110013404,ราษฎร์บูรณะ,โรงเรียนวัดแจงร้อน,1024,2/3 หมู่ 1 แขวงราษฎร์บูรณะ เขตราษฎร์บูรณะ,664375.68,1512331.542
405,Point,2,3110013405,ราษฎร์บูรณะ,โรงเรียนวัดสน,1024,102 หมู่ 5 แขวงราษฎร์บูรณะ เขตราษฎร์บูรณะ,663673.149,1512006.318
406,Point,2,3110013406,ราษฎร์บูรณะ,โรงเรียนวัดสารอด,1024,25/1 แขวงราษฎร์บูรณะ เขตราษฎร์บูรณะ,662551.115,1512124.79
407,Point,3,3110023401,ราษฎร์บูรณะ,โรงเรียนวัดบางปะกอก,1024,86/1 หมู่ 1 แขวงบางปะกอก เขตราษฎร์บูรณะ,661730.898,1513067.573
408,Point,3,3110023402,ราษฎร์บูรณะ,โรงเรียนรัตนจีนะอุทิศ,1024,648/3 หมู่ 2 แขวงบางปะกอก เขตราษฎร์บูรณะ,661374.446,1511652.575
409,Point,3,3110013329,บางแค,โรงเรียนวัดราษฎร์บำรุง (งามศิริวิทยาคาร),1040,10 หมู่ 4 ถ.เพชรเกษม 69 แขวงหลักสอง เขตบางแค,649180.573,1515135.09
410,Point,3,3110014601,บางแค,โรงเรียนบางแค (เนื่องสังวาลย์อนุสรณ์),1040,299 หมู่ 10 ถ.เพชรเกษม 51 แขวงบางแคเหนือ เขตบางแค,651441.906,1515792.418
411,Point,2,3110014604,บางแค,โรงเรียนเพชรเกษม (จตุรงค์สงครามอนุสรณ์),1040,273 หมู่ 10 แขวงบางแค เขตบางแค,649731.816,1515469
412,Point,2,3110014605,บางแค,โรงเรียนวัดศาลาแดง,1040,4 หมู่ 6 ถ.บางแวก แขวงบางไผ่ เขตบางแค,646452.531,1520415.209
413,Point,1,3110014606,บางแค,โรงเรียนบางไผ่ (บ้านนายพันแก้วขาว),1040,9 หมู่ 10 ซ.บางไผ่ แขวงบางไผ่ เขตบางแค,651758.916,1519492.001
414,Point,3,3110014607,บางแค,โรงเรียนบางเชือกหนัง,1040,หมู่ 7 ซ.วัฒนเสวี ถ.บางแวก แขวงบางไผ่ เขตบางแค,650249.611,1520662.764
415,Point,3,3110014608,บางแค,โรงเรียนวัดพรหมสุวรรณสามัคคี,1040,43/2 หมู่ 4 แขวงบางไผ่ เขตบางแค,647881.219,1518247.537
416,Point,3,3110014609,บางแค,โรงเรียนบางแคเหนือ,1040,21 หมู่ 1 ถ.เพชรเกษม 76/1 แขวงบางแคเหนือ เขตบางแค,652816.664,1516268.663
417,Point,3,3110014610,บางแค,โรงเรียนวัดม่วง,1040,8 หมู่ 2 ถ.เพชรเกษม แขวงหลักสอง เขตบางแค,650644.827,1514273.528
418,Point,3,3110014612,บางแค,โรงเรียนหมู่บ้านเศรษฐกิจ,1040,273 หมู่ 10 แขวงบางแค เขตบางแค,648642.822,1516667.16
419,Point,3,3110024602,บางแค,โรงเรียนวัดบุณยประดิษฐ์,1040,115 หมู่ 2 แขวงบางไผ่ เขตบางแค,650154.534,1518341.789
420,Point,3,3110024603,บางแค,โรงเรียนคลองหนองใหญ่,1040,53 หมู่ 9 ถ.สุขาภิบาล 1 แขวงบางแค เขตบางแค,653295.019,1513867.71
421,Point,3,3110015001,ทุ่งครุ,โรงเรียนนาหลวง,1049,ถ.พุทธบูชา แขวงบางมด เขตทุ่งครุ,661710.922,1509261.165
422,Point,3,3110015002,ทุ่งครุ,โรงเรียนสามัคคีบำรุง,1049,75 หมู่ 4 ถ.ประชาอุทิศ แขวงบางมด เขตทุ่งครุ,663476.231,1509053.453
423,Point,2,3110015003,ทุ่งครุ,โรงเรียนบางมด (ตันเปาว์วิทยาคาร),1049,177 หมู่ 3 ถ.พุทธบูชา แขวงบางมด เขตทุ่งครุ,659177.06,1509999.14
424,Point,3,3110015004,ทุ่งครุ,โรงเรียนราษฎร์บูรณะ,1049,141 หมู่ 1 ซ.ทุ่งครุ ถ.ประชาอุทิศ แขวงทุ่งครุ เขตทุ่งครุ,662597.493,1507838.285
425,Point,1,3110015005,ทุ่งครุ,โรงเรียนรางราชพฤกษ์ (นุชมีอุทิศ),1049,47/2 หมู่ 4 ซ.ประชาอุทิศ 72 แขวงทุ่งครุ เขตทุ่งครุ,660371.134,1507546.281
426,Point,3,3110015006,ทุ่งครุ,โรงเรียนวัดทุ่งครุ,1049,42 หมู่ 6 ถ.ประชาอุทิศ แขวงทุ่งครุ เขตทุ่งครุ,663565.058,1506123.909
427,Point,1,3110015007,ทุ่งครุ,โรงเรียนคลองรางจาก,1049,69/1 คลองรางจาก แขวงทุ่งครุ เขตทุ่งครุ,663851.142,1507949.939
428,Point,2,3110015008,ทุ่งครุ,โรงเรียนชูสินทองประดิษฐ์อนุสรณ์,1049,81/27 หมู่ 4 ถ.ประชาอุทิศ แขวงบางมด เขตทุ่งครุ,663273.097,1510316.63
429,Point,2,3110014802,บางบอน,โรงเรียนบ้านนายผล,1050,39/2 หมู่ 2 ถ.เอกชัย แขวงบางบอน เขตบางบอน,646712.787,1508682.775
430,Point,2,3110014803,บางบอน,โรงเรียนบ้านนายสี,1050,77/4 หมู่ ถ.เอกชัย แขวงบางบอน เขตบางบอน,651314.065,1510981.18
431,Point,3,3110014804,บางบอน,โรงเรียนวัดบางบอน (พิมพ์  จันแต้อุปถัมภ์),1050,33/1 หมู่ 3 ถ.เอกชัย แขวงบางบอน เขตบางบอน,649269.273,1508562.322
432,Point,2,3110014805,บางบอน,โรงเรียนพรหมราษฎร์รังสรรค์,1050,59 หมู่ 5 ถ.เอกชัย แขวงบางบอน เขตบางบอน,650987.174,1508591.581
433,Point,2,3110014806,บางบอน,โรงเรียนสถานีพรมแดน,1050,23 หมู่ 3 ถ.เอกชัย แขวงบางบอน เขตบางบอน,649333.31,1506590.696
434,Point,2,3110014807,บางบอน,โรงเรียนวัดนินสุขาราม,1050,94/1 หมู่ 10 ถ.เอกชัย แขวงบางบอน เขตบางบอน,651913.633,1512141.215
435,Point,3,3110024801,บางบอน,โรงเรียนบ้านนายเหรียญ,1050,10/10 หมู่ 11 ถ.บางบอน 3 แขวงบางบอน เขตบางบอน,649039.014,1511529.697
436,Point,3,3110024808,บางบอน,โรงเรียนพระยามนธาตุราชศรีพิจิตร์,1050,89 หมู่ 7 ถ.บางขุนเทียน แขวงบางบอน เขตบางบอน,654166.852,1511513.542
437,Point,,3110014809,บางบอน,โรงเรียนคงโครัดอุทิศ,,,,
